STARLINK-31550          
1 59338U 24057U   26068.35427435 -.00002524  00000+0 -82223-4 0  9996
2 59338  43.0001 189.3190 0001319 268.8625  91.2076 15.27581044109787
FLOCK 4G-26             
1 62633U 25009AA  26068.80489479  .00011283  00000+0  42469-3 0  9999
2 62633  97.4054 151.3913 0001988 299.1273  60.9767 15.27281631 63733
